STARLINK-30753          
1 58175U 23167A   26067.56698206  .00001309  00000+0  58451-4 0  9997
2 58175  43.0013 149.7305 0001137 276.4768  83.5954 15.26749256130814
BANDWAGON-4 OBJECT P    
1 66306U 25248P   26067.98083108  .00022647  00000+0  92291-3 0  9996
2 66306  45.4037 295.4322 0012078 209.3167 150.7044 15.24098352 19290
